NORAD_CAT_ID,OBJECT_NAME,OBJECT_TYPE,EPOCH,MEAN_MOTION,ECCENTRICITY,INCLINATION,RA_OF_ASC_NODE,ARG_OF_PERICENTER,MEAN_ANOMALY,BSTAR,MEAN_MOTION_DOT,MEAN_MOTION_DDOT,TLE_LINE0,TLE_LINE1,TLE_LINE2,SEMIMAJOR_AXIS,PERIOD,APOGEE,PERIGEE,DECAYED
52291.0,STARLINK-3773,PAYLOAD,2023-01-09 00:21:31,15.08838564,0.000322,53.2159,247.1381,19.3904,340.721,0.00017576,2.51e-05,0.0,0 STARLINK-3773,1 52291U 22041AG  23009.01494745  .00002510  00000-0  17576-3 0  9993,2 52291  53.2159 247.1381 0003220  19.3904 340.7210 15.08838564 41252,6917.885,95.438,541.977,537.5219999999998,0.0
52291.0,STARLINK-3773,PAYLOAD,2023-01-09 08:18:27,15.08841929,0.0003226,53.2149,245.6509,21.0835,339.0289,0.00021908,3.2e-05,0.0,0 STARLINK-3773,1 52291U 22041AG  23009.34614647  .00003200  00000-0  21908-3 0  9995,2 52291  53.2149 245.6509 0003226  21.0835 339.0289 15.08841929 40081,6917.874,95.437,541.971,537.508,0.0
52291.0,STARLINK-3773,PAYLOAD,2023-01-09 22:36:55,15.08838048,0.0003212,53.2145,242.9746,21.4415,338.6712,0.00016475,2.334e-05,0.0,0 STARLINK-3773,1 52291U 22041AG  23009.94230906  .00002334  00000-0  16475-3 0  9993,2 52291  53.2145 242.9746 0003212  21.4415 338.6712 15.08838048 40177,6917.886,95.438,541.9730000000002,537.529,0.0
52291.0,STARLINK-3773,PAYLOAD,2023-01-10 01:47:41,15.08838059,0.0003269,53.2146,242.3804,20.6358,339.4766,0.00012572,1.713e-05,0.0,0 STARLINK-3773,1 52291U 22041AG  23010.07478916  .00001713  00000-0  12572-3 0  9998,2 52291  53.2146 242.3804 0003269  20.6358 339.4766 15.08838059 41414,6917.886,95.438,542.013,537.49,0.0
52291.0,STARLINK-3773,PAYLOAD,2023-01-10 14:30:46,15.08837838,0.0003242,53.2148,240.0015,22.2278,337.8854,2.2902e-05,7.6e-07,0.0,0 STARLINK-3773,1 52291U 22041AG  23010.60471028  .00000076  00000-0  22902-4 0  9994,2 52291  53.2148 240.0015 0003242  22.2278 337.8854 15.08837838 40272,6917.887,95.438,541.995,537.509,0.0
52291.0,STARLINK-3773,PAYLOAD,2023-01-10 16:06:10,15.08835353,0.0003242,53.2152,239.704,22.0956,338.0175,-2.4455e-05,-6.78e-06,0.0,0 STARLINK-3773,1 52291U 22041AG  23010.67095153 -.00000678  00000-0 -24455-4 0  9997,2 52291  53.2152 239.7040 0003242  22.0956 338.0175 15.08835353 40281,6917.895,95.438,542.002,537.5169999999998,0.0
52291.0,STARLINK-3773,PAYLOAD,2023-01-11 08:00:01,15.088470999999998,0.0003291,53.2151,236.7303,23.8143,336.3,0.0001433,1.993e-05,0.0,0 STARLINK-3773,1 52291U 22041AG  23011.33334586  .00001993  00000-0  14330-3 0  9996,2 52291  53.2151 236.7303 0003291  23.8143 336.3000 15.08847100 41608,6917.859,95.437,542.0,537.447,0.0
52291.0,STARLINK-3773,PAYLOAD,2023-01-11 22:18:29,15.08843053,0.0003329,53.2148,234.0539,25.2684,334.847,0.00013032,1.786e-05,0.0,0 STARLINK-3773,1 52291U 22041AG  23011.92950760  .00001786  00000-0  13032-3 0  9997,2 52291  53.2148 234.0539 0003329  25.2684 334.8470 15.08843053 41690,6917.871,95.437,542.039,537.433,0.0
52291.0,STARLINK-3773,PAYLOAD,2023-01-12 20:33:54,15.08830444,0.0003537,53.2139,229.8916,31.4585,328.6618,-7.4587e-05,-1.476e-05,0.0,0 STARLINK-3773,1 52291U 22041AG  23012.85688434 -.00001476  00000-0 -74587-4 0  9997,2 52291  53.2139 229.8916 0003537  31.4585 328.6618 15.08830444 41832,6917.91,95.438,542.221,537.328,0.0
52291.0,STARLINK-3773,PAYLOAD,2023-01-12 23:44:40,15.08846083,0.0003403,53.2147,229.2973,25.0465,335.0691,-0.00031131,-5.241e-05,0.0,0 STARLINK-3773,1 52291U 22041AG  23012.98936038 -.00005241  00000-0 -31131-3 0  9998,2 52291  53.2147 229.2973 0003403  25.0465 335.0691 15.08846083 41857,6917.861999999999,95.437,542.081,537.373,0.0
52291.0,STARLINK-3773,PAYLOAD,2023-01-13 14:03:08,15.08839675,0.0003218,53.2154,226.6204,26.8674,333.2484,1.8858e-05,1.1e-07,0.0,0 STARLINK-3773,1 52291U 22041AG  23013.58551779  .00000011  00000-0  18858-4 0  9990,2 52291  53.2154 226.6204 0003218  26.8674 333.2484 15.08839675 40722,6917.880999999999,95.438,541.9730000000001,537.52,0.0
52291.0,STARLINK-3773,PAYLOAD,2023-01-13 20:24:41,15.08840223,0.0003235,53.2154,225.431,27.4762,332.6401,2.5541e-05,1.18e-06,0.0,0 STARLINK-3773,1 52291U 22041AG  23013.85047781  .00000118  00000-0  25541-4 0  9998,2 52291  53.2154 225.4310 0003235  27.4762 332.6401 15.08840223 40768,6917.88,95.438,541.9830000000001,537.507,0.0
52291.0,STARLINK-3773,PAYLOAD,2023-01-14 13:53:56,15.08830988,0.0003228,53.2155,222.16,29.634,330.4835,0.00015576,2.191e-05,0.0,0 STARLINK-3773,1 52291U 22041AG  23014.57912221  .00002191  00000-0  15576-3 0  9997,2 52291  53.2155 222.1600 0003228  29.6340 330.4835 15.08830988 42095,6917.908,95.438,542.006,537.54,0.0
52291.0,STARLINK-3773,PAYLOAD,2023-01-15 13:44:43,15.08839008,0.0002983,53.2153,217.6971,37.6613,322.4588,3.9761e-05,3.44e-06,0.0,0 STARLINK-3773,1 52291U 22041AG  23015.57272430  .00000344  00000-0  39761-4 0  9990,2 52291  53.2153 217.6971 0002983  37.6613 322.4588 15.08839008 41022,6917.883000000001,95.438,541.812,537.685,0.0
52291.0,STARLINK-3773,PAYLOAD,2023-01-15 20:06:15,15.08841512,0.0003048,53.216,216.5079,34.1071,326.0117,4.6874e-05,4.57e-06,0.0,0 STARLINK-3773,1 52291U 22041AG  23015.83768264  .00000457  00000-0  46874-4 0  9992,2 52291  53.2160 216.5079 0003048  34.1071 326.0117 15.08841512 42280,6917.876,95.437,541.849,537.632,0.0
52291.0,STARLINK-3773,PAYLOAD,2023-01-16 12:00:07,15.08836322,0.0003069,53.2173,213.5365,34.8934,325.2259,4.552100000000001e-05,4.36e-06,0.0,0 STARLINK-3773,1 52291U 22041AG  23016.50008730  .00000436  00000-0  45521-4 0  9997,2 52291  53.2173 213.5365 0003069  34.8934 325.2259 15.08836322 42389,6917.892,95.438,541.88,537.634,0.0
52291.0,STARLINK-3773,PAYLOAD,2023-01-16 13:35:30,15.088352300000002,0.0003072,53.2171,213.2388,36.2707,323.8493,1.1129e-05,-1.12e-06,0.0,0 STARLINK-3773,1 52291U 22041AG  23016.56632917 -.00000112  00000-0  11129-4 0  9992,2 52291  53.2171 213.2388 0003072  36.2707 323.8493 15.08835230 41174,6917.895,95.438,541.885,537.635,0.0
52291.0,STARLINK-3773,PAYLOAD,2023-01-16 21:32:28,15.08812125,0.00029,53.2164,211.7504,34.4991,325.6189,-0.00017498,-3.07e-05,0.0,0 STARLINK-3773,1 52291U 22041AG  23016.89755165 -.00003070  00000-0 -17498-3 0  9990,2 52291  53.2164 211.7504 0002900  34.4991 325.6189 15.08812125 42444,6917.965999999999,95.439,541.837,537.8240000000001,0.0
52291.0,STARLINK-3773,PAYLOAD,2023-01-17 11:50:56,15.08821508,0.0002774999999999,53.2174,209.0748,36.461,323.657,-1.6831e-05,-5.56e-06,0.0,0 STARLINK-3773,1 52291U 22041AG  23017.49370846 -.00000556  00000-0 -16831-4 0  9993,2 52291  53.2174 209.0748 0002775  36.4610 323.6570 15.08821508 42532,6917.937,95.439,541.722,537.882,0.0
52291.0,STARLINK-3773,PAYLOAD,2023-01-17 19:47:51,15.08829145,0.0002819,53.2173,207.5884,37.2412,322.8775,1.3455e-05,-7.4e-07,0.0,0 STARLINK-3773,1 52291U 22041AG  23017.82490651 -.00000074  00000-0  13455-4 0  9990,2 52291  53.2173 207.5884 0002819  37.2412 322.8775 15.08829145 42581,6917.914000000001,95.438,541.729,537.828,0.0
52291.0,STARLINK-3773,PAYLOAD,2023-01-18 13:17:06,15.08839168,0.0002816999999999,53.2176,204.3173,42.7269,317.3942,0.00017909,2.563e-05,0.0,0 STARLINK-3773,1 52291U 22041AG  23018.55354403  .00002563  00000-0  17909-3 0  9996,2 52291  53.2176 204.3173 0002817  42.7269 317.3942 15.08839168 42692,6917.883000000001,95.438,541.697,537.799,0.0
52291.0,STARLINK-3773,PAYLOAD,2023-01-18 19:38:38,15.08846494,0.0002836,53.2164,203.128,41.0391,319.0815,0.00042116,6.422e-05,0.0,0 STARLINK-3773,1 52291U 22041AG  23018.81850515  .00006422  00000-0  42116-3 0  9996,2 52291  53.2164 203.1280 0002836  41.0391 319.0815 15.08846494 41512,6917.861,95.437,541.687,537.764,0.0
52291.0,STARLINK-3773,PAYLOAD,2023-01-19 11:32:31,15.08821926,0.000324,53.2145,200.1542,44.2688,315.8562,-0.00020155,-3.494e-05,0.0,0 STARLINK-3773,1 52291U 22041AG  23019.48091971 -.00003494  00000-0 -20155-3 0  9990,2 52291  53.2145 200.1542 0003240  44.2688 315.8562 15.08821926 42835,6917.936,95.439,542.0419999999999,537.559,0.0
52291.0,STARLINK-3773,PAYLOAD,2023-01-19 13:07:54,15.08826767,0.0003086999999999,53.2128,199.857,43.0782,317.0452,-5.4429e-05,-1.155e-05,0.0,0 STARLINK-3773,1 52291U 22041AG  23019.54715884 -.00001155  00000-0 -54429-4 0  9997,2 52291  53.2128 199.8570 0003087  43.0782 317.0452 15.08826767 41628,6917.920999999999,95.438,541.9209999999999,537.65,0.0
52291.0,STARLINK-3773,PAYLOAD,2023-01-19 19:29:26,15.08845769,0.0002785,53.2153,198.6678,48.3613,311.7618,0.00081505,0.0001271,0.0,0 STARLINK-3773,1 52291U 22041AG  23019.81211454  .00012710  00000-0  81505-3 0  9992,2 52291  53.2153 198.6678 0002785  48.3613 311.7618 15.08845769 42884,6917.863,95.437,541.654,537.8009999999999,0.0
52291.0,STARLINK-3773,PAYLOAD,2023-01-20 05:01:45,15.08853334,0.0002904,53.2152,196.8836,48.9308,311.1935,0.0010529,0.00016515,0.0,0 STARLINK-3773,1 52291U 22041AG  23020.20955360  .00016515  00000-0  10529-2 0  9992,2 52291  53.2152 196.8836 0002904  48.9308 311.1935 15.08853334 41724,6917.84,95.437,541.714,537.696,0.0
52291.0,STARLINK-3773,PAYLOAD,2023-01-21 11:14:03,15.08865489,0.0003453,53.2146,191.2351,56.6068,303.5254,0.0003083999999999,4.627e-05,0.0,0 STARLINK-3773,1 52291U 22041AG  23021.46809463  .00004627  00000-0  30840-3 0  9993,2 52291  53.2146 191.2351 0003453  56.6068 303.5254 15.08865489 43137,6917.802,95.436,542.056,537.279,0.0
52291.0,STARLINK-3773,PAYLOAD,2023-01-21 17:35:35,15.08860708,0.000307,53.2163,190.0426,60.1318,299.9979,0.00017648,2.523e-05,0.0,0 STARLINK-3773,1 52291U 22041AG  23021.73305327  .00002523  00000-0  17648-3 0  9997,2 52291  53.2163 190.0426 0003070  60.1318 299.9979 15.08860708 43174,6917.816999999999,95.436,541.806,537.558,0.0
52291.0,STARLINK-3773,PAYLOAD,2023-01-22 11:04:50,15.08851138,0.0002819999999999,53.2156,186.7742,48.562,311.5614,2.9144e-06,-2.42e-06,0.0,0 STARLINK-3773,1 52291U 22041AG  23022.46169126 -.00000242  00000-0  29144-5 0  9996,2 52291  53.2156 186.7742 0002820  48.5620 311.5614 15.08851138 43283,6917.846,95.437,541.6619999999999,537.761,0.0
